{"type": "FeatureCollection", "features": [ {"type": "Feature", "properties": {"norad_id": 43648, "name": "BEIDOU-3 M15 (C34)", "group": "gnss", "lat": -7.580100139961405, "lon": 131.699018850051, "alt_km": 21540.01643632993, "timestamp": "2025-12-21T03:56:51.083210+00:00", "meta": {"OBJECT_NAME": "BEIDOU-3 M15 (C34)", "OBJECT_ID": "2018-078B", "EPOCH": "2025-12-19T06:30:41.361984", "MEAN_MOTION": 1.86232317, "ECCENTRICITY": 0.0003969, "INCLINATION": 54.2518, "RA_OF_ASC_NODE": 306.2933, "ARG_OF_PERICENTER": 20.1104, "MEAN_ANOMALY": 339.8954, "EPHEMERIS_TYPE": 0, "CLASSIFICATION_TYPE": "U", "NORAD_CAT_ID": 43648, "ELEMENT_SET_NO": 999, "REV_AT_EPOCH": 4882, "BSTAR": 0, "MEAN_MOTION_DOT": -7.6e-07, "MEAN_MOTION_DDOT": 0}, "tle": {"line1": "1 43648U 18078B   25353.27131206 -.00000076  00000+0  00000+0 0  9991", "line2": "2 43648  54.2518 306.2933 0003969  20.1104 339.8954  1.86232317 48829"}}, "geometry": {"type": "Point", "coordinates": [131.699018850051, -7.580100139961405]}}, {"type": "Feature", "properties": {"norad_id": 43683, "name": "BEIDOU-3 G1 (C59)", "group": "gnss", "lat": -0.324367580293911, "lon": -70.78642896071311, "alt_km": 35792.24313802514, "timestamp": "2025-12-21T03:56:51.083224+00:00", "meta": {"OBJECT_NAME": "BEIDOU-3 G1 (C59)", "OBJECT_ID": "2018-085A", "EPOCH": "2025-12-20T20:44:38.849856", "MEAN_MOTION": 1.0026839, "ECCENTRICITY": 0.0001583, "INCLINATION": 2.6272, "RA_OF_ASC_NODE": 102.7285, "ARG_OF_PERICENTER": 46.3465, "MEAN_ANOMALY": 31.7945, "EPHEMERIS_TYPE": 0, "CLASSIFICATION_TYPE": "U", "NORAD_CAT_ID": 43683, "ELEMENT_SET_NO": 999, "REV_AT_EPOCH": 2627, "BSTAR": 0, "MEAN_MOTION_DOT": -2.57e-06, "MEAN_MOTION_DDOT": 0}, "tle": {"line1": "1 43683U 18085A   25354.86433854 -.00000257  00000+0  00000+0 0  9999", "line2": "2 43683   2.6272 102.7285 0001583  46.3465  31.7945  1.00268390 26270"}}, "geometry": {"type": "Point", "coordinates": [-70.78642896071311, -0.324367580293911]}}, {"type": "Feature", "properties": {"norad_id": 43687, "name": "COSMOS 2529 (757)", "group": "gnss", "lat": -44.73694055044637, "lon": 47.1374595299119, "alt_km": 19118.615707795212, "timestamp": "2025-12-21T03:56:51.083234+00:00", "meta": {"OBJECT_NAME": "COSMOS 2529 (757)", "OBJECT_ID": "2018-086A", "EPOCH": "2025-12-18T12:23:46.661856", "MEAN_MOTION": 2.13102105, "ECCENTRICITY": 0.00070461, "INCLINATION": 64.2922, "RA_OF_ASC_NODE": 198.6932, "ARG_OF_PERICENTER": 253.6593, "MEAN_ANOMALY": 106.345, "EPHEMERIS_TYPE": 0, "CLASSIFICATION_TYPE": "U", "NORAD_CAT_ID": 43687, "ELEMENT_SET_NO": 999, "REV_AT_EPOCH": 5543, "BSTAR": 0, "MEAN_MOTION_DOT": 1.09e-06, "MEAN_MOTION_DDOT": 0}, "tle": {"line1": "1 43687U 18086A   25352.51651229  .00000109  00000+0  00000+0 0  9997", "line2": "2 43687  64.2922 198.6932 0007046 253.6593 106.3450  2.13102105 55434"}}, "geometry": {"type": "Point", "coordinates": [47.1374595299119, -44.73694055044637]}}, {"type": "Feature", "properties": {"norad_id": 43706, "name": "BEIDOU-3 M17 (C36)", "group": "gnss", "lat": 53.54131906189222, "lon": -93.61573904842574, "alt_km": 21534.048895020267, "timestamp": "2025-12-21T03:56:51.083244+00:00", "meta": {"OBJECT_NAME": "BEIDOU-3 M17 (C36)", "OBJECT_ID": "2018-093A", "EPOCH": "2025-12-20T12:04:20.840736", "MEAN_MOTION": 1.86228485, "ECCENTRICITY": 0.00060883, "INCLINATION": 54.1751, "RA_OF_ASC_NODE": 188.3582, "ARG_OF_PERICENTER": 307.8758, "MEAN_ANOMALY": 51.559, "EPHEMERIS_TYPE": 0, "CLASSIFICATION_TYPE": "U", "NORAD_CAT_ID": 43706, "ELEMENT_SET_NO": 999, "REV_AT_EPOCH": 4820, "BSTAR": 0, "MEAN_MOTION_DOT": 9.7e-07, "MEAN_MOTION_DDOT": 0}, "tle": {"line1": "1 43706U 18093A   25354.50301899  .00000097  00000+0  00000+0 0  9999", "line2": "2 43706  54.1751 188.3582 0006088 307.8758  51.5590  1.86228485 48203"}}, "geometry": {"type": "Point", "coordinates": [-93.61573904842574, 53.54131906189222]}}, {"type": "Feature", "properties": {"norad_id": 43707, "name": "BEIDOU-3 M18 (C37)", "group": "gnss", "lat": 3.4510766103067794, "lon": 5.83446294842911, "alt_km": 21545.629772775475, "timestamp": "2025-12-21T03:56:51.083253+00:00", "meta": {"OBJECT_NAME": "BEIDOU-3 M18 (C37)", "OBJECT_ID": "2018-093B", "EPOCH": "2025-12-20T08:46:15.603168", "MEAN_MOTION": 1.86226697, "ECCENTRICITY": 0.0006223, "INCLINATION": 54.174, "RA_OF_ASC_NODE": 188.3547, "ARG_OF_PERICENTER": 354.092, "MEAN_ANOMALY": 5.9566, "EPHEMERIS_TYPE": 0, "CLASSIFICATION_TYPE": "U", "NORAD_CAT_ID": 43707, "ELEMENT_SET_NO": 999, "REV_AT_EPOCH": 4820, "BSTAR": 0, "MEAN_MOTION_DOT": 9.7e-07, "MEAN_MOTION_DDOT": 0}, "tle": {"line1": "1 43707U 18093B   25354.36545837  .00000097  00000+0  00000+0 0  9996", "line2": "2 43707  54.1740 188.3547 0006223 354.0920   5.9566  1.86226697 48208"}}, "geometry": {"type": "Point", "coordinates": [5.83446294842911, 3.4510766103067794]}}, {"type": "Feature", "properties": {"norad_id": 43873, "name": "GPS BIII-1  (PRN 04)", "group": "gnss", "lat": 52.54140605552621, "lon": -144.15609640789714, "alt_km": 20175.638937549164, "timestamp": "2025-12-21T03:56:51.083263+00:00", "meta": {"OBJECT_NAME": "GPS BIII-1  (PRN 04)", "OBJECT_ID": "2018-109A", "EPOCH": "2025-12-20T14:49:36.231744", "MEAN_MOTION": 2.00553966, "ECCENTRICITY": 0.0037575, "INCLINATION": 55.571, "RA_OF_ASC_NODE": 99.2363, "ARG_OF_PERICENTER": 195.36, "MEAN_ANOMALY": 236.122, "EPHEMERIS_TYPE": 0, "CLASSIFICATION_TYPE": "U", "NORAD_CAT_ID": 43873, "ELEMENT_SET_NO": 999, "REV_AT_EPOCH": 5149, "BSTAR": 0, "MEAN_MOTION_DOT": -1.2e-07, "MEAN_MOTION_DDOT": 0}, "tle": {"line1": "1 43873U 18109A   25354.61778046 -.00000012  00000+0  00000+0 0  9994", "line2": "2 43873  55.5710  99.2363 0037575 195.3600 236.1220  2.00553966 51494"}}, "geometry": {"type": "Point", "coordinates": [-144.15609640789714, 52.54140605552621]}}, {"type": "Feature", "properties": {"norad_id": 44231, "name": "BEIDOU-2 G8 (C01)", "group": "gnss", "lat": -1.081334952916299, "lon": -66.4163061564349, "alt_km": 35758.440356238956, "timestamp": "2025-12-21T03:56:51.083273+00:00", "meta": {"OBJECT_NAME": "BEIDOU-2 G8 (C01)", "OBJECT_ID": "2019-027A", "EPOCH": "2025-12-19T12:14:23.449632", "MEAN_MOTION": 1.00276563, "ECCENTRICITY": 0.0008196, "INCLINATION": 1.6785, "RA_OF_ASC_NODE": 74.7229, "ARG_OF_PERICENTER": 258.5641, "MEAN_ANOMALY": 83.1013, "EPHEMERIS_TYPE": 0, "CLASSIFICATION_TYPE": "U", "NORAD_CAT_ID": 44231, "ELEMENT_SET_NO": 999, "REV_AT_EPOCH": 2427, "BSTAR": 0, "MEAN_MOTION_DOT": -2.24e-06, "MEAN_MOTION_DDOT": 0}, "tle": {"line1": "1 44231U 19027A   25353.50999363 -.00000224  00000+0  00000+0 0  9992", "line2": "2 44231   1.6785  74.7229 0008196 258.5641  83.1013  1.00276563 24270"}}, "geometry": {"type": "Point", "coordinates": [-66.4163061564349, -1.081334952916299]}}, {"type": "Feature", "properties": {"norad_id": 44299, "name": "COSMOS 2534 (758)", "group": "gnss", "lat": 5.307463876546676, "lon": -158.82794164570555, "alt_km": 19126.473936302216, "timestamp": "2025-12-21T03:56:51.083285+00:00", "meta": {"OBJECT_NAME": "COSMOS 2534 (758)", "OBJECT_ID": "2019-030A", "EPOCH": "2025-12-18T18:30:09.690336", "MEAN_MOTION": 2.13102412, "ECCENTRICITY": 0.0008748, "INCLINATION": 64.3658, "RA_OF_ASC_NODE": 198.6898, "ARG_OF_PERICENTER": 284.2192, "MEAN_ANOMALY": 45.4012, "EPHEMERIS_TYPE": 0, "CLASSIFICATION_TYPE": "U", "NORAD_CAT_ID": 44299, "ELEMENT_SET_NO": 999, "REV_AT_EPOCH": 5107, "BSTAR": 0, "MEAN_MOTION_DOT": 1.08e-06, "MEAN_MOTION_DDOT": 0}, "tle": {"line1": "1 44299U 19030A   25352.77094549  .00000108  00000+0  00000+0 0  9990", "line2": "2 44299  64.3658 198.6898 0008748 284.2192  45.4012  2.13102412 51071"}}, "geometry": {"type": "Point", "coordinates": [-158.82794164570555, 5.307463876546676]}}, {"type": "Feature", "properties": {"norad_id": 44337, "name": "BEIDOU-3 IGSO-2 (C39)", "group": "gnss", "lat": 51.40087080639596, "lon": -80.2278209995644, "alt_km": 35792.8352898094, "timestamp": "2025-12-21T03:56:51.083297+00:00", "meta": {"OBJECT_NAME": "BEIDOU-3 IGSO-2 (C39)", "OBJECT_ID": "2019-035A", "EPOCH": "2025-12-20T20:45:51.571008", "MEAN_MOTION": 1.00268938, "ECCENTRICITY": 0.0037599, "INCLINATION": 55.2283, "RA_OF_ASC_NODE": 160.43, "ARG_OF_PERICENTER": 202.2266, "MEAN_ANOMALY": 157.9019, "EPHEMERIS_TYPE": 0, "CLASSIFICATION_TYPE": "U", "NORAD_CAT_ID": 44337, "ELEMENT_SET_NO": 999, "REV_AT_EPOCH": 2388, "BSTAR": 0, "MEAN_MOTION_DOT": -6.9e-07, "MEAN_MOTION_DDOT": 0}, "tle": {"line1": "1 44337U 19035A   25354.86518022 -.00000069  00000+0  00000+0 0  9994", "line2": "2 44337  55.2283 160.4300 0037599 202.2266 157.9019  1.00268938 23885"}}, "geometry": {"type": "Point", "coordinates": [-80.2278209995644, 51.40087080639596]}}, {"type": "Feature", "properties": {"norad_id": 44506, "name": "GPS BIII-2  (PRN 18)", "group": "gnss", "lat": 3.0558295755691733, "lon": -19.70851535529174, "alt_km": 20329.64851292775, "timestamp": "2025-12-21T03:56:51.083307+00:00", "meta": {"OBJECT_NAME": "GPS BIII-2  (PRN 18)", "OBJECT_ID": "2019-056A", "EPOCH": "2025-12-20T05:10:31.696032", "MEAN_MOTION": 2.00566646, "ECCENTRICITY": 0.00577304, "INCLINATION": 55.7188, "RA_OF_ASC_NODE": 338.2562, "ARG_OF_PERICENTER": 198.5398, "MEAN_ANOMALY": 199.8804, "EPHEMERIS_TYPE": 0, "CLASSIFICATION_TYPE": "U", "NORAD_CAT_ID": 44506, "ELEMENT_SET_NO": 999, "REV_AT_EPOCH": 4648, "BSTAR": 0, "MEAN_MOTION_DOT": -7.7e-07, "MEAN_MOTION_DDOT": 0}, "tle": {"line1": "1 44506U 19056A   25354.21564463 -.00000077  00000+0  00000+0 0  9993", "line2": "2 44506  55.7188 338.2562 0057730 198.5398 199.8804  2.00566646 46485"}}, "geometry": {"type": "Point", "coordinates": [-19.70851535529174, 3.0558295755691733]}}]}